METEOSAT-9 (MSG-2)      
1 28912U 05049B   26178.81526571  .00000126  00000+0  00000+0 0  9996
2 28912   9.3846  54.0636 0001958 358.6343 202.4759  1.00278089  7105
METOP-B                 
1 38771U 12049A   26178.88905740  .00000107  00000+0  68920-4 0  9993
2 38771  98.6499 230.1746 0001566 346.9839  13.1297 14.21442083714785
METEOSAT-11 (MSG-4)     
1 40732U 15034A   26178.87937959  .00000070  00000+0  00000+0 0  9995
2 40732   3.2273  71.0439 0002232 347.6611 183.2604  1.00266419  7321
METOP-C                 
1 43689U 18087A   26178.83730977  .00000101  00000+0  65870-4 0  9993
2 43689  98.6640 238.2461 0002063 116.1245 244.0145 14.21514787396347
NEMO-HD                 
1 46277U 20061F   26178.94807799  .00010308  00000+0  22190-3 0  9990
2 46277  97.1922 240.7930 0001727  74.4575 285.6864 15.44805974323646
METEOSAT-12 (MTG-I1)    
1 54743U 22170C   26178.92753183  .00000004  00000+0  00000+0 0  9999
2 54743   0.7500  24.6820 0003680  72.2185 152.7271  1.00275638 13080
MTG-S1                  
1 64723U 25143A   26178.94873535  .00000004  00000+0  00000+0 0  9997
2 64723   0.5946 341.2382 0002748 268.0372   7.8563  1.00271994  3522
MICROCARB               
1 64899U 25156A   26178.95476109  .00000495  00000+0  85628-4 0  9990
2 64899  97.9920 255.9072 0015507 231.5080 128.4737 14.72533929 49551
NISAR                   
1 65053U 25163A   26178.91646324  .00000155  00000+0  59914-4 0  9997
2 65053  98.4054   6.4246 0001232  88.4332 271.6999 14.42506401 47932
METOP-SGA1              
1 65159U 25172A   26178.92179880  .00000043  00000+0  40704-4 0  9996
2 65159  98.6642 238.4219 0008044  22.7342 337.4189 14.19816649 45315
