{
 "generated_at": "2026-06-28T08:21:54Z",
 "sources": [
  {
   "name": "CelesTrak",
   "url": "https://celestrak.org/NORAD/elements/",
   "license": "frei verfügbar; Attribution. Ursprünglich USSPACECOM/Space-Track."
  },
  {
   "name": "GCAT (J. McDowell, planet4589.org)",
   "url": "https://planet4589.org/space/gcat/",
   "license": "CC-BY 4.0"
  }
 ],
 "satellites": [
  {
   "norad": 40732,
   "name": "METEOSAT-11 (MSG-4)",
   "intl": "2015-034A",
   "group": "weather",
   "gcat": {
    "class": "C",
    "category": "MET",
    "owner": "EUMET",
    "state": "I-EUM"
   },
   "omm": {
    "OBJECT_NAME": "METEOSAT-11 (MSG-4)",
    "OBJECT_ID": "2015-034A",
    "EPOCH": "2026-06-27T21:06:18.396576",
    "MEAN_MOTION": 1.00266419,
    "ECCENTRICITY": 0.0002232,
    "INCLINATION": 3.2273,
    "RA_OF_ASC_NODE": 71.0439,
    "ARG_OF_PERICENTER": 347.6611,
    "MEAN_ANOMALY": 183.2604,
    "EPHEMERIS_TYPE": 0,
    "CLASSIFICATION_TYPE": "U",
    "NORAD_CAT_ID": 40732,
    "ELEMENT_SET_NO": 999,
    "REV_AT_EPOCH": 732,
    "BSTAR": 0,
    "MEAN_MOTION_DOT": 7e-7,
    "MEAN_MOTION_DDOT": 0
   }
  },
  {
   "norad": 54743,
   "name": "METEOSAT-12 (MTG-I1)",
   "intl": "2022-170C",
   "group": "weather",
   "gcat": {
    "class": "C",
    "category": "MET",
    "owner": "EUMET",
    "state": "I-EUM"
   },
   "omm": {
    "OBJECT_NAME": "METEOSAT-12 (MTG-I1)",
    "OBJECT_ID": "2022-170C",
    "EPOCH": "2026-06-27T22:15:38.750112",
    "MEAN_MOTION": 1.00275638,
    "ECCENTRICITY": 0.00036805,
    "INCLINATION": 0.75,
    "RA_OF_ASC_NODE": 24.682,
    "ARG_OF_PERICENTER": 72.2185,
    "MEAN_ANOMALY": 152.7271,
    "EPHEMERIS_TYPE": 0,
    "CLASSIFICATION_TYPE": "U",
    "NORAD_CAT_ID": 54743,
    "ELEMENT_SET_NO": 999,
    "REV_AT_EPOCH": 1308,
    "BSTAR": 0,
    "MEAN_MOTION_DOT": 4e-8,
    "MEAN_MOTION_DDOT": 0
   }
  },
  {
   "norad": 28912,
   "name": "METEOSAT-9 (MSG-2)",
   "intl": "2005-049B",
   "group": "weather",
   "gcat": {
    "class": "C",
    "category": "MET",
    "owner": "EUMET",
    "state": "I-EUM"
   },
   "omm": {
    "OBJECT_NAME": "METEOSAT-9 (MSG-2)",
    "OBJECT_ID": "2005-049B",
    "EPOCH": "2026-06-27T19:33:58.957344",
    "MEAN_MOTION": 1.00278089,
    "ECCENTRICITY": 0.00019584,
    "INCLINATION": 9.3846,
    "RA_OF_ASC_NODE": 54.0636,
    "ARG_OF_PERICENTER": 358.6343,
    "MEAN_ANOMALY": 202.4759,
    "EPHEMERIS_TYPE": 0,
    "CLASSIFICATION_TYPE": "U",
    "NORAD_CAT_ID": 28912,
    "ELEMENT_SET_NO": 999,
    "REV_AT_EPOCH": 710,
    "BSTAR": 0,
    "MEAN_MOTION_DOT": 0.00000126,
    "MEAN_MOTION_DDOT": 0
   }
  },
  {
   "norad": 38771,
   "name": "METOP-B",
   "intl": "2012-049A",
   "group": "weather",
   "gcat": {
    "class": "C",
    "category": "MET",
    "owner": "EUMET",
    "state": "I-EUM"
   },
   "omm": {
    "OBJECT_NAME": "METOP-B",
    "OBJECT_ID": "2012-049A",
    "EPOCH": "2026-06-27T21:20:14.559360",
    "MEAN_MOTION": 14.21442083,
    "ECCENTRICITY": 0.00015665,
    "INCLINATION": 98.6499,
    "RA_OF_ASC_NODE": 230.1746,
    "ARG_OF_PERICENTER": 346.9839,
    "MEAN_ANOMALY": 13.1297,
    "EPHEMERIS_TYPE": 0,
    "CLASSIFICATION_TYPE": "U",
    "NORAD_CAT_ID": 38771,
    "ELEMENT_SET_NO": 999,
    "REV_AT_EPOCH": 71478,
    "BSTAR": 0.000068920303,
    "MEAN_MOTION_DOT": 0.00000107,
    "MEAN_MOTION_DDOT": 0
   }
  },
  {
   "norad": 43689,
   "name": "METOP-C",
   "intl": "2018-087A",
   "group": "weather",
   "gcat": {
    "class": "C",
    "category": "MET",
    "owner": "EUMET",
    "state": "I-EUM"
   },
   "omm": {
    "OBJECT_NAME": "METOP-C",
    "OBJECT_ID": "2018-087A",
    "EPOCH": "2026-06-27T20:05:43.564128",
    "MEAN_MOTION": 14.21514787,
    "ECCENTRICITY": 0.00020639,
    "INCLINATION": 98.664,
    "RA_OF_ASC_NODE": 238.2461,
    "ARG_OF_PERICENTER": 116.1245,
    "MEAN_ANOMALY": 244.0145,
    "EPHEMERIS_TYPE": 0,
    "CLASSIFICATION_TYPE": "U",
    "NORAD_CAT_ID": 43689,
    "ELEMENT_SET_NO": 999,
    "REV_AT_EPOCH": 39634,
    "BSTAR": 0.000065870435,
    "MEAN_MOTION_DOT": 0.00000101,
    "MEAN_MOTION_DDOT": 0
   }
  },
  {
   "norad": 65159,
   "name": "METOP-SGA1",
   "intl": "2025-172A",
   "group": "weather",
   "gcat": {
    "class": "C",
    "category": "MET",
    "owner": "EUMET",
    "state": "I-EUM"
   },
   "omm": {
    "OBJECT_NAME": "METOP-SGA1",
    "OBJECT_ID": "2025-172A",
    "EPOCH": "2026-06-27T22:07:23.416320",
    "MEAN_MOTION": 14.19816649,
    "ECCENTRICITY": 0.00080443,
    "INCLINATION": 98.6642,
    "RA_OF_ASC_NODE": 238.4219,
    "ARG_OF_PERICENTER": 22.7342,
    "MEAN_ANOMALY": 337.4189,
    "EPHEMERIS_TYPE": 0,
    "CLASSIFICATION_TYPE": "U",
    "NORAD_CAT_ID": 65159,
    "ELEMENT_SET_NO": 999,
    "REV_AT_EPOCH": 4531,
    "BSTAR": 0.000040703504,
    "MEAN_MOTION_DOT": 4.3e-7,
    "MEAN_MOTION_DDOT": 0
   }
  },
  {
   "norad": 64899,
   "name": "MICROCARB",
   "intl": "2025-156A",
   "group": "resource",
   "gcat": {
    "class": "C",
    "category": "SCI",
    "owner": "CNES",
    "state": "F"
   },
   "omm": {
    "OBJECT_NAME": "MICROCARB",
    "OBJECT_ID": "2025-156A",
    "EPOCH": "2026-06-27T22:54:51.358176",
    "MEAN_MOTION": 14.72533929,
    "ECCENTRICITY": 0.00155075,
    "INCLINATION": 97.992,
    "RA_OF_ASC_NODE": 255.9072,
    "ARG_OF_PERICENTER": 231.508,
    "MEAN_ANOMALY": 128.4737,
    "EPHEMERIS_TYPE": 0,
    "CLASSIFICATION_TYPE": "U",
    "NORAD_CAT_ID": 64899,
    "ELEMENT_SET_NO": 999,
    "REV_AT_EPOCH": 4955,
    "BSTAR": 0.000085627816,
    "MEAN_MOTION_DOT": 0.00000495,
    "MEAN_MOTION_DDOT": 0
   }
  },
  {
   "norad": 64723,
   "name": "MTG-S1",
   "intl": "2025-143A",
   "group": "weather",
   "gcat": {
    "class": "C",
    "category": "MET",
    "owner": "EUMET",
    "state": "I-EUM"
   },
   "omm": {
    "OBJECT_NAME": "MTG-S1",
    "OBJECT_ID": "2025-143A",
    "EPOCH": "2026-06-27T22:46:10.734240",
    "MEAN_MOTION": 1.00271994,
    "ECCENTRICITY": 0.00027489,
    "INCLINATION": 0.5946,
    "RA_OF_ASC_NODE": 341.2382,
    "ARG_OF_PERICENTER": 268.0372,
    "MEAN_ANOMALY": 7.8563,
    "EPHEMERIS_TYPE": 0,
    "CLASSIFICATION_TYPE": "U",
    "NORAD_CAT_ID": 64723,
    "ELEMENT_SET_NO": 999,
    "REV_AT_EPOCH": 352,
    "BSTAR": 0,
    "MEAN_MOTION_DOT": 4e-8,
    "MEAN_MOTION_DDOT": 0
   }
  },
  {
   "norad": 46277,
   "name": "NEMO-HD",
   "intl": "2020-061F",
   "group": "resource",
   "gcat": {
    "class": "A",
    "category": "IMG",
    "owner": "SPSI",
    "state": "SI"
   },
   "omm": {
    "OBJECT_NAME": "NEMO-HD",
    "OBJECT_ID": "2020-061F",
    "EPOCH": "2026-06-27T22:45:13.938336",
    "MEAN_MOTION": 15.44805974,
    "ECCENTRICITY": 0.00017275,
    "INCLINATION": 97.1922,
    "RA_OF_ASC_NODE": 240.793,
    "ARG_OF_PERICENTER": 74.4575,
    "MEAN_ANOMALY": 285.6864,
    "EPHEMERIS_TYPE": 0,
    "CLASSIFICATION_TYPE": "U",
    "NORAD_CAT_ID": 46277,
    "ELEMENT_SET_NO": 999,
    "REV_AT_EPOCH": 32364,
    "BSTAR": 0.00022189584,
    "MEAN_MOTION_DOT": 0.00010308,
    "MEAN_MOTION_DDOT": 0
   }
  },
  {
   "norad": 65053,
   "name": "NISAR",
   "intl": "2025-163A",
   "group": "sar",
   "gcat": {
    "class": "C",
    "category": "IMG-R",
    "owner": "ISRO/JPL",
    "state": "IN"
   },
   "omm": {
    "OBJECT_NAME": "NISAR",
    "OBJECT_ID": "2025-163A",
    "EPOCH": "2026-06-27T21:59:42.423936",
    "MEAN_MOTION": 14.42506401,
    "ECCENTRICITY": 0.00012325,
    "INCLINATION": 98.4054,
    "RA_OF_ASC_NODE": 6.4246,
    "ARG_OF_PERICENTER": 88.4332,
    "MEAN_ANOMALY": 271.6999,
    "EPHEMERIS_TYPE": 0,
    "CLASSIFICATION_TYPE": "U",
    "NORAD_CAT_ID": 65053,
    "ELEMENT_SET_NO": 999,
    "REV_AT_EPOCH": 4793,
    "BSTAR": 0.000059914381,
    "MEAN_MOTION_DOT": 0.00000155,
    "MEAN_MOTION_DDOT": 0
   }
  }
 ]
}
